#aV2021 12 22  0  0  0.00000000     288 DD+AD WGS84 FIT  NGA
## 2189 259200.00000000   300.00000000 59570 0.0000000000000
+   32     1  2  3  4  5  6  7  8  9 10 11 12 13 14 15 16 17
+         18 19 20 21 22 23 24 25 26 27 28 29 30 31 32  0  0
+          0  0  0  0  0  0  0  0  0  0  0  0  0  0  0  0  0
+          0  0  0  0  0  0  0  0  0  0  0  0  0  0  0  0  0
+          0  0  0  0  0  0  0  0  0  0  0  0  0  0  0  0  0
++         2  2  2  2  2  2  2  2  2  2  2  2  2  2  2  2  2
++         2  2  2  2  2  2  2  2  2  2  2  2  2  2  2  0  0
++         0  0  0  0  0  0  0  0  0  0  0  0  0  0  0  0  0
++         0  0  0  0  0  0  0  0  0  0  0  0  0  0  0  0  0
++         0  0  0  0  0  0  0  0  0  0  0  0  0  0  0  0  0
%c cc cc ccc ccc cccc cccc cccc cccc ccccc ccccc ccccc ccccc
%c cc cc ccc ccc cccc cccc cccc cccc ccccc ccccc ccccc ccccc
%f  0.0000000  0.000000000  0.00000000000  0.000000000000000
%f  0.0000000  0.000000000  0.00000000000  0.000000000000000
%i    0    0    0    0      0      0      0      0         0
%i    0    0    0    0      0      0      0      0         0
/*      NGA, ST. LOUIS,MO.                                  
/*   EPHEMERIS COMPUTED FROM 2 DAYS OF DATA                 
/*   EPOCHA v7 SMOOTHER                                     
/*   G2139 IERS2010 SATIGS SATAPC                           
*  2021 12 22 12 15  0.00000000
P  1 -13873.568811  22403.728812    765.369295    477.348769                    
V  1  -1307.614727  -2303.635004  32522.761687     -0.100834                    
P  2  17423.676891  -7582.647667 -17937.647807   -646.463242                    
V  2  -8962.868686  22420.414309 -17445.879652     -0.011837                    
P  3 -13840.377144  12803.731370 -18769.559851    -50.150135                    
V  3 -23622.442426  -1303.087356  16720.760835     -0.129941                    
P  4  -5023.585075  18234.225924 -18615.408848   -198.120725                    
V  4 -12470.024176 -20171.970690 -16468.032078      0.014091                    
P  5  25141.397860  -5636.375670   6602.870529    -65.269236                    
V  5   8663.551599   2298.650459 -30127.830704     -0.013001                    
P  6  11238.686503   9633.003040 -21978.818819    149.539631                    
V  6 -14291.136547  24090.272795   3301.598491      0.102719                    
P  7  -2169.199907  22750.009140  13480.299380    293.742820                    
V  7 -10780.587560  13067.251591 -24957.147742      0.043031                    
P  8 -12864.949458   7924.752869  21826.268046    -49.060736                    
V  8 -14497.920764 -23648.699363    368.609462     -0.014804                    
P  9   5473.570649  23721.446285 -10656.939712   -359.917683                    
V  9  -9222.983192 -10140.556428 -27530.625761      0.008239                    
P 10 -16576.528543 -11794.923531  17361.738506   -274.740715                    
V 10  21643.969933  -1371.472261  19596.298594     -0.091337                    
P 11  18262.233249  -3785.483288 -18909.849292     10.581449                    
V 11 -11993.863944  20841.244498 -15772.041453     -0.037016                    
P 12  16508.823088 -11038.128076 -17826.882427   -144.496900                    
V 12  21991.543220   3031.666165  18892.344399     -0.056164                    
P 13  15992.399108    764.672318  21064.794532    233.366436                    
V 13   9734.131665  25249.453062  -8094.401477      0.058518                    
P 14  15689.728882  12819.864193  17201.566897    -59.199163                    
V 14 -21897.346569    913.842533  19227.808349     -0.059724                    
P 15  12064.409108 -10052.475241  21011.100868    -97.278538                    
V 15  16955.894279  21981.295432   1090.023646      0.028357                    
P 16 -26504.643477    214.061153   3778.950248   -444.259988                    
V 16  -4842.857235  -2529.267551 -31211.621257     -0.058521                    
P 17  13084.434161  22942.259711  -2182.789797    551.004305                    
V 17   -535.749039   3964.584923  32047.543416      0.053130                    
P 18   2497.742042 -22470.745831  13852.817319    275.040037                    
V 18  10848.637026 -14027.557689 -24800.853810     -0.067923                    
P 19  16247.110923  18078.139073 -11174.457842     95.522666                    
V 19   3972.945522  13232.604951  27667.141004      0.049864                    
P 20  26068.031716   -905.588250  -4219.861497    517.528368                    
V 20  -4790.355981   4368.263789 -30869.210724     -0.001798                    
P 21 -16889.901930  17176.289696  11162.983852    154.358469                    
V 21   3278.110634 -13259.215160  27609.475657      0.009301                    
P 22 -20808.255722  11017.042095 -11909.952174   -435.469530                    
V 22 -15763.587341  -1463.835033  26028.877019      0.089551                    
P 23  -4291.612169 -14798.862622  21625.792063     19.163967                    
V 23  27448.807526  -1100.354854   4603.406327     -0.040718                    
P 24  14665.321806 -21097.111617   5521.433279    275.746345                    
V 24    300.284788   8446.208904  30339.458093      0.014343                    
P 25   3894.356006 -15221.298273 -21659.332918    259.546752                    
V 25  26901.887021    397.242471   4892.520933      0.056934                    
P 26 -24380.826321  -5640.092644  -9411.663943    167.366783                    
V 26  11629.269540  -3479.227172 -27952.776014      0.035540                    
P 27 -17513.574106  -3719.075209  19559.023146     18.166730                    
V 27 -11768.392088 -22169.373611 -14240.841132      0.290113                    
P 28  21355.746477  10378.442753  12200.718091    437.979543                    
V 28 -14862.467507    736.130415  26767.580570     -0.077361                    
P 29   -765.352185 -22701.582391 -13761.285616   -457.343525                    
V 29   9090.899023  14917.259633 -25243.176325     -0.050408                    
P 30   6084.113192  17285.978627  19210.968845   -501.210103                    
V 30 -14084.997139  20017.731424 -13837.446297     -0.028487                    
P 31 -13553.103166  -7337.766312 -21755.392976   -156.262383                    
V 31  14357.369826 -23290.104021   -629.051711     -0.018598                    
P 32 -16579.552188 -19989.557793  -5904.734152    -38.813225                    
V 32  -1548.839803  -7922.094695  30371.791754     -0.055790                    
EOF
